{"type": "FeatureCollection", "features": [ {"type": "Feature", "properties": {"norad_id": 66571, "name": "STARLINK-35836", "group": "last-30-days", "lat": -15.886709255983245, "lon": 163.1095562832247, "alt_km": 341.5143423086229, "timestamp": "2025-12-02T15:49:05.949802+00:00", "meta": {"OBJECT_NAME": "STARLINK-35836", "OBJECT_ID": "2025-268Q", "EPOCH": "2025-12-02T06:00:02.999808", "MEAN_MOTION": 15.77945287, "ECCENTRICITY": 0.00014736, "INCLINATION": 42.9976, "RA_OF_ASC_NODE": 183.3852, "ARG_OF_PERICENTER": 273.549, "MEAN_ANOMALY": 257.3962, "EPHEMERIS_TYPE": 0, "CLASSIFICATION_TYPE": "U", "NORAD_CAT_ID": 66571, "ELEMENT_SET_NO": 999, "REV_AT_EPOCH": 298, "BSTAR": -0.01094867, "MEAN_MOTION_DOT": -0.01693706, "MEAN_MOTION_DDOT": 0}, "tle": {"line1": "1 66571U 25268Q   25336.25003472 -.01693706  00000+0 -10949-1 0  9997", "line2": "2 66571  42.9976 183.3852 0001473 273.5490 257.3962 15.77945287  2987"}}, "geometry": {"type": "Point", "coordinates": [163.1095562832247, -15.886709255983245]}}, {"type": "Feature", "properties": {"norad_id": 66572, "name": "STARLINK-35870", "group": "last-30-days", "lat": -14.565148027126481, "lon": 164.69843509322538, "alt_km": 341.62733363157895, "timestamp": "2025-12-02T15:49:05.949814+00:00", "meta": {"OBJECT_NAME": "STARLINK-35870", "OBJECT_ID": "2025-268R", "EPOCH": "2025-12-02T06:00:02.999808", "MEAN_MOTION": 15.77885512, "ECCENTRICITY": 0.0001488, "INCLINATION": 42.998, "RA_OF_ASC_NODE": 183.3805, "ARG_OF_PERICENTER": 273.3531, "MEAN_ANOMALY": 259.7181, "EPHEMERIS_TYPE": 0, "CLASSIFICATION_TYPE": "U", "NORAD_CAT_ID": 66572, "ELEMENT_SET_NO": 999, "REV_AT_EPOCH": 298, "BSTAR": -0.011077186, "MEAN_MOTION_DOT": -0.01707179, "MEAN_MOTION_DDOT": 0}, "tle": {"line1": "1 66572U 25268R   25336.25003472 -.01707179  00000+0 -11077-1 0  9991", "line2": "2 66572  42.9980 183.3805 0001488 273.3531 259.7181 15.77885512  2984"}}, "geometry": {"type": "Point", "coordinates": [164.69843509322538, -14.565148027126481]}}, {"type": "Feature", "properties": {"norad_id": 66573, "name": "STARLINK-35650", "group": "last-30-days", "lat": -13.257383747890163, "lon": 166.23811087991703, "alt_km": 341.5587930476513, "timestamp": "2025-12-02T15:49:05.949826+00:00", "meta": {"OBJECT_NAME": "STARLINK-35650", "OBJECT_ID": "2025-268S", "EPOCH": "2025-12-02T06:00:02.999808", "MEAN_MOTION": 15.77843376, "ECCENTRICITY": 0.00015682, "INCLINATION": 42.9977, "RA_OF_ASC_NODE": 183.3748, "ARG_OF_PERICENTER": 277.0528, "MEAN_ANOMALY": 258.0749, "EPHEMERIS_TYPE": 0, "CLASSIFICATION_TYPE": "U", "NORAD_CAT_ID": 66573, "ELEMENT_SET_NO": 999, "REV_AT_EPOCH": 298, "BSTAR": -0.011137166, "MEAN_MOTION_DOT": -0.01712509, "MEAN_MOTION_DDOT": 0}, "tle": {"line1": "1 66573U 25268S   25336.25003472 -.01712509  00000+0 -11137-1 0  9992", "line2": "2 66573  42.9977 183.3748 0001568 277.0528 258.0749 15.77843376  2987"}}, "geometry": {"type": "Point", "coordinates": [166.23811087991703, -13.257383747890163]}}, {"type": "Feature", "properties": {"norad_id": 66574, "name": "STARLINK-35812", "group": "last-30-days", "lat": -11.969242748828872, "lon": 167.72865886899132, "alt_km": 341.75620773915125, "timestamp": "2025-12-02T15:49:05.949838+00:00", "meta": {"OBJECT_NAME": "STARLINK-35812", "OBJECT_ID": "2025-268T", "EPOCH": "2025-12-02T06:00:02.999808", "MEAN_MOTION": 15.77841117, "ECCENTRICITY": 0.00015236, "INCLINATION": 42.9979, "RA_OF_ASC_NODE": 183.3696, "ARG_OF_PERICENTER": 266.7321, "MEAN_ANOMALY": 270.3548, "EPHEMERIS_TYPE": 0, "CLASSIFICATION_TYPE": "U", "NORAD_CAT_ID": 66574, "ELEMENT_SET_NO": 999, "REV_AT_EPOCH": 298, "BSTAR": -0.01123749, "MEAN_MOTION_DOT": -0.01725925, "MEAN_MOTION_DDOT": 0}, "tle": {"line1": "1 66574U 25268T   25336.25003472 -.01725925  00000+0 -11237-1 0  9990", "line2": "2 66574  42.9979 183.3696 0001523 266.7321 270.3548 15.77841117  2984"}}, "geometry": {"type": "Point", "coordinates": [167.72865886899132, -11.969242748828872]}}, {"type": "Feature", "properties": {"norad_id": 66575, "name": "STARLINK-35810", "group": "last-30-days", "lat": -10.630206498022918, "lon": 169.25369698242525, "alt_km": 341.86829216713886, "timestamp": "2025-12-02T15:49:05.949848+00:00", "meta": {"OBJECT_NAME": "STARLINK-35810", "OBJECT_ID": "2025-268U", "EPOCH": "2025-12-02T06:00:02.999808", "MEAN_MOTION": 15.77789445, "ECCENTRICITY": 0.00014194, "INCLINATION": 42.9977, "RA_OF_ASC_NODE": 183.3643, "ARG_OF_PERICENTER": 266.3062, "MEAN_ANOMALY": 272.8798, "EPHEMERIS_TYPE": 0, "CLASSIFICATION_TYPE": "U", "NORAD_CAT_ID": 66575, "ELEMENT_SET_NO": 999, "REV_AT_EPOCH": 298, "BSTAR": -0.011365488, "MEAN_MOTION_DOT": -0.01739561, "MEAN_MOTION_DDOT": 0}, "tle": {"line1": "1 66575U 25268U   25336.25003472 -.01739561  00000+0 -11365-1 0  9994", "line2": "2 66575  42.9977 183.3643 0001419 266.3062 272.8798 15.77789445  2986"}}, "geometry": {"type": "Point", "coordinates": [169.25369698242525, -10.630206498022918]}}, {"type": "Feature", "properties": {"norad_id": 66576, "name": "STARLINK-35814", "group": "last-30-days", "lat": -9.292487845095168, "lon": 170.75565184290494, "alt_km": 341.79612821382307, "timestamp": "2025-12-02T15:49:05.949858+00:00", "meta": {"OBJECT_NAME": "STARLINK-35814", "OBJECT_ID": "2025-268V", "EPOCH": "2025-12-02T06:00:02.999808", "MEAN_MOTION": 15.77747761, "ECCENTRICITY": 0.0001624, "INCLINATION": 42.9978, "RA_OF_ASC_NODE": 183.3589, "ARG_OF_PERICENTER": 270.3699, "MEAN_ANOMALY": 270.8886, "EPHEMERIS_TYPE": 0, "CLASSIFICATION_TYPE": "U", "NORAD_CAT_ID": 66576, "ELEMENT_SET_NO": 999, "REV_AT_EPOCH": 298, "BSTAR": -0.011528583, "MEAN_MOTION_DOT": -0.01758748, "MEAN_MOTION_DDOT": 0}, "tle": {"line1": "1 66576U 25268V   25336.25003472 -.01758748  00000+0 -11529-1 0  9995", "line2": "2 66576  42.9978 183.3589 0001624 270.3699 270.8886 15.77747761  2987"}}, "geometry": {"type": "Point", "coordinates": [170.75565184290494, -9.292487845095168]}}, {"type": "Feature", "properties": {"norad_id": 66577, "name": "STARLINK-35815", "group": "last-30-days", "lat": -7.94606402966905, "lon": 172.24909565129653, "alt_km": 342.10761136348447, "timestamp": "2025-12-02T15:49:05.949868+00:00", "meta": {"OBJECT_NAME": "STARLINK-35815", "OBJECT_ID": "2025-268W", "EPOCH": "2025-12-02T06:00:02.999808", "MEAN_MOTION": 15.77703365, "ECCENTRICITY": 0.00014682, "INCLINATION": 42.9978, "RA_OF_ASC_NODE": 183.3538, "ARG_OF_PERICENTER": 263.0179, "MEAN_ANOMALY": 280.3338, "EPHEMERIS_TYPE": 0, "CLASSIFICATION_TYPE": "U", "NORAD_CAT_ID": 66577, "ELEMENT_SET_NO": 999, "REV_AT_EPOCH": 298, "BSTAR": -0.011797806, "MEAN_MOTION_DOT": -0.01791454, "MEAN_MOTION_DDOT": 0}, "tle": {"line1": "1 66577U 25268W   25336.25003472 -.01791454  00000+0 -11798-1 0  9995", "line2": "2 66577  42.9978 183.3538 0001468 263.0179 280.3338 15.77703365  2980"}}, "geometry": {"type": "Point", "coordinates": [172.24909565129653, -7.94606402966905]}}, {"type": "Feature", "properties": {"norad_id": 66578, "name": "STARLINK-35743", "group": "last-30-days", "lat": -6.634023514861181, "lon": 173.68931116293467, "alt_km": 341.98274777219467, "timestamp": "2025-12-02T15:49:05.949878+00:00", "meta": {"OBJECT_NAME": "STARLINK-35743", "OBJECT_ID": "2025-268X", "EPOCH": "2025-12-02T06:00:02.999808", "MEAN_MOTION": 15.77701722, "ECCENTRICITY": 0.00016012, "INCLINATION": 42.9978, "RA_OF_ASC_NODE": 183.349, "ARG_OF_PERICENTER": 265.7076, "MEAN_ANOMALY": 279.6048, "EPHEMERIS_TYPE": 0, "CLASSIFICATION_TYPE": "U", "NORAD_CAT_ID": 66578, "ELEMENT_SET_NO": 999, "REV_AT_EPOCH": 298, "BSTAR": -0.011963633, "MEAN_MOTION_DOT": -0.01813478, "MEAN_MOTION_DDOT": 0}, "tle": {"line1": "1 66578U 25268X   25336.25003472 -.01813478  00000+0 -11964-1 0  9992", "line2": "2 66578  42.9978 183.3490 0001601 265.7076 279.6048 15.77701722  2986"}}, "geometry": {"type": "Point", "coordinates": [173.68931116293467, -6.634023514861181]}}, {"type": "Feature", "properties": {"norad_id": 66579, "name": "STARLINK-35868", "group": "last-30-days", "lat": -5.273460399645924, "lon": 175.16947808195079, "alt_km": 342.1359809467649, "timestamp": "2025-12-02T15:49:05.949888+00:00", "meta": {"OBJECT_NAME": "STARLINK-35868", "OBJECT_ID": "2025-268Y", "EPOCH": "2025-12-02T06:00:02.999808", "MEAN_MOTION": 15.77642286, "ECCENTRICITY": 0.00015012, "INCLINATION": 42.9975, "RA_OF_ASC_NODE": 183.3434, "ARG_OF_PERICENTER": 266.5844, "MEAN_ANOMALY": 280.8565, "EPHEMERIS_TYPE": 0, "CLASSIFICATION_TYPE": "U", "NORAD_CAT_ID": 66579, "ELEMENT_SET_NO": 999, "REV_AT_EPOCH": 298, "BSTAR": -0.01231028, "MEAN_MOTION_DOT": -0.018548, "MEAN_MOTION_DDOT": 0}, "tle": {"line1": "1 66579U 25268Y   25336.25003472 -.01854800  00000+0 -12310-1 0  9993", "line2": "2 66579  42.9975 183.3434 0001501 266.5844 280.8565 15.77642286  2980"}}, "geometry": {"type": "Point", "coordinates": [175.16947808195079, -5.273460399645924]}}, {"type": "Feature", "properties": {"norad_id": 66580, "name": "STARLINK-35872", "group": "last-30-days", "lat": -3.9604551079942962, "lon": 176.58857801229271, "alt_km": 342.19127371419654, "timestamp": "2025-12-02T15:49:05.949900+00:00", "meta": {"OBJECT_NAME": "STARLINK-35872", "OBJECT_ID": "2025-268Z", "EPOCH": "2025-12-02T06:00:02.999808", "MEAN_MOTION": 15.77611757, "ECCENTRICITY": 0.0001461, "INCLINATION": 42.9974, "RA_OF_ASC_NODE": 183.3386, "ARG_OF_PERICENTER": 261.7291, "MEAN_ANOMALY": 287.6821, "EPHEMERIS_TYPE": 0, "CLASSIFICATION_TYPE": "U", "NORAD_CAT_ID": 66580, "ELEMENT_SET_NO": 999, "REV_AT_EPOCH": 298, "BSTAR": -0.012238644, "MEAN_MOTION_DOT": -0.0184313, "MEAN_MOTION_DDOT": 0}, "tle": {"line1": "1 66580U 25268Z   25336.25003472 -.01843130  00000+0 -12239-1 0  9999", "line2": "2 66580  42.9974 183.3386 0001461 261.7291 287.6821 15.77611757  2984"}}, "geometry": {"type": "Point", "coordinates": [176.58857801229271, -3.9604551079942962]}}]}